{"type": "FeatureCollection", "features": [ {"type": "Feature", "properties": {"norad_id": 31633, "name": "FENGYUN 1C DEB", "group": "fengyun-1c-debris", "lat": -19.181479414615307, "lon": 18.6868347627299, "alt_km": 918.3617822062251, "timestamp": "2025-12-27T23:26:37.646021+00:00", "meta": {"OBJECT_NAME": "FENGYUN 1C DEB", "OBJECT_ID": "1999-025CAP", "EPOCH": "2025-12-26T06:33:35.172000", "MEAN_MOTION": 14.06452252, "ECCENTRICITY": 0.0066992, "INCLINATION": 98.7125, "RA_OF_ASC_NODE": 13.9891, "ARG_OF_PERICENTER": 135.0901, "MEAN_ANOMALY": 225.5715, "EPHEMERIS_TYPE": 0, "CLASSIFICATION_TYPE": "U", "NORAD_CAT_ID": 31633, "ELEMENT_SET_NO": 999, "REV_AT_EPOCH": 57274, "BSTAR": 0.0007101, "MEAN_MOTION_DOT": 1.156e-05, "MEAN_MOTION_DDOT": 0}, "tle": {"line1": "1 31633U 99025CAP 25360.27332375  .00001156  00000+0  71010-3 0  9993", "line2": "2 31633  98.7125  13.9891 0066992 135.0901 225.5715 14.06452252572745"}}, "geometry": {"type": "Point", "coordinates": [18.6868347627299, -19.181479414615307]}}, {"type": "Feature", "properties": {"norad_id": 31634, "name": "FENGYUN 1C DEB", "group": "fengyun-1c-debris", "lat": -48.14967144456379, "lon": 59.30745111965346, "alt_km": 984.1394947541958, "timestamp": "2025-12-27T23:26:37.646031+00:00", "meta": {"OBJECT_NAME": "FENGYUN 1C DEB", "OBJECT_ID": "1999-025CAQ", "EPOCH": "2025-12-27T09:54:27.516672", "MEAN_MOTION": 13.94683974, "ECCENTRICITY": 0.0092165, "INCLINATION": 99.3651, "RA_OF_ASC_NODE": 48.1183, "ARG_OF_PERICENTER": 118.4054, "MEAN_ANOMALY": 242.6434, "EPHEMERIS_TYPE": 0, "CLASSIFICATION_TYPE": "U", "NORAD_CAT_ID": 31634, "ELEMENT_SET_NO": 999, "REV_AT_EPOCH": 56728, "BSTAR": 0.00042304, "MEAN_MOTION_DOT": 5.41e-06, "MEAN_MOTION_DDOT": 0}, "tle": {"line1": "1 31634U 99025CAQ 25361.41281848  .00000541  00000+0  42304-3 0  9990", "line2": "2 31634  99.3651  48.1183 0092165 118.4054 242.6434 13.94683974567280"}}, "geometry": {"type": "Point", "coordinates": [59.30745111965346, -48.14967144456379]}}, {"type": "Feature", "properties": {"norad_id": 31639, "name": "FENGYUN 1C DEB", "group": "fengyun-1c-debris", "lat": 20.65255549404412, "lon": -56.43365390929276, "alt_km": 928.9071720998118, "timestamp": "2025-12-27T23:26:37.646042+00:00", "meta": {"OBJECT_NAME": "FENGYUN 1C DEB", "OBJECT_ID": "1999-025CAV", "EPOCH": "2025-12-22T15:39:08.252640", "MEAN_MOTION": 13.85166588, "ECCENTRICITY": 0.01620254, "INCLINATION": 98.7446, "RA_OF_ASC_NODE": 301.925, "ARG_OF_PERICENTER": 118.3699, "MEAN_ANOMALY": 7.054, "EPHEMERIS_TYPE": 0, "CLASSIFICATION_TYPE": "U", "NORAD_CAT_ID": 31639, "ELEMENT_SET_NO": 999, "REV_AT_EPOCH": 93825, "BSTAR": 0.0001297758, "MEAN_MOTION_DOT": 1.24e-06, "MEAN_MOTION_DDOT": 0}, "tle": {"line1": "1 31639U 99025CAV 25356.65217885  .00000124  00000+0  12978-3 0  9996", "line2": "2 31639  98.7446 301.9250 0162025 118.3699   7.0540 13.85166588938259"}}, "geometry": {"type": "Point", "coordinates": [-56.43365390929276, 20.65255549404412]}}, {"type": "Feature", "properties": {"norad_id": 31642, "name": "FENGYUN 1C DEB", "group": "fengyun-1c-debris", "lat": -30.97447058876243, "lon": 89.06386871556705, "alt_km": 825.2015330799286, "timestamp": "2025-12-27T23:26:37.646052+00:00", "meta": {"OBJECT_NAME": "FENGYUN 1C DEB", "OBJECT_ID": "1999-025CAY", "EPOCH": "2025-12-25T11:16:54.891264", "MEAN_MOTION": 14.33429312, "ECCENTRICITY": 0.0119589, "INCLINATION": 98.5031, "RA_OF_ASC_NODE": 81.449, "ARG_OF_PERICENTER": 218.5008, "MEAN_ANOMALY": 140.7601, "EPHEMERIS_TYPE": 0, "CLASSIFICATION_TYPE": "U", "NORAD_CAT_ID": 31642, "ELEMENT_SET_NO": 999, "REV_AT_EPOCH": 97201, "BSTAR": 0.00039099, "MEAN_MOTION_DOT": 1.123e-05, "MEAN_MOTION_DDOT": 0}, "tle": {"line1": "1 31642U 99025CAY 25359.47007976  .00001123  00000+0  39099-3 0  9994", "line2": "2 31642  98.5031  81.4490 0119589 218.5008 140.7601 14.33429312972017"}}, "geometry": {"type": "Point", "coordinates": [89.06386871556705, -30.97447058876243]}}, {"type": "Feature", "properties": {"norad_id": 31644, "name": "FENGYUN 1C DEB", "group": "fengyun-1c-debris", "lat": 0.340094168350658, "lon": -107.32523144209269, "alt_km": 746.5740437952963, "timestamp": "2025-12-27T23:26:37.646062+00:00", "meta": {"OBJECT_NAME": "FENGYUN 1C DEB", "OBJECT_ID": "1999-025CBA", "EPOCH": "2025-12-24T11:09:42.035040", "MEAN_MOTION": 14.6801574, "ECCENTRICITY": 0.01546634, "INCLINATION": 98.6703, "RA_OF_ASC_NODE": 249.0073, "ARG_OF_PERICENTER": 146.5214, "MEAN_ANOMALY": 26.7938, "EPHEMERIS_TYPE": 0, "CLASSIFICATION_TYPE": "U", "NORAD_CAT_ID": 31644, "ELEMENT_SET_NO": 999, "REV_AT_EPOCH": 71216, "BSTAR": 0.00077873285, "MEAN_MOTION_DOT": 5.292e-05, "MEAN_MOTION_DDOT": 0}, "tle": {"line1": "1 31644U 99025CBA 25358.46506985  .00005292  00000+0  77873-3 0  9991", "line2": "2 31644  98.6703 249.0073 0154663 146.5214  26.7938 14.68015740712164"}}, "geometry": {"type": "Point", "coordinates": [-107.32523144209269, 0.340094168350658]}}, {"type": "Feature", "properties": {"norad_id": 31646, "name": "FENGYUN 1C DEB", "group": "fengyun-1c-debris", "lat": 71.13011063919001, "lon": -128.8550013402548, "alt_km": 827.4847204396601, "timestamp": "2025-12-27T23:26:37.646072+00:00", "meta": {"OBJECT_NAME": "FENGYUN 1C DEB", "OBJECT_ID": "1999-025CBC", "EPOCH": "2025-12-21T19:12:21.278592", "MEAN_MOTION": 14.1415009, "ECCENTRICITY": 0.00334947, "INCLINATION": 98.6891, "RA_OF_ASC_NODE": 18.5609, "ARG_OF_PERICENTER": 188.0881, "MEAN_ANOMALY": 171.9757, "EPHEMERIS_TYPE": 0, "CLASSIFICATION_TYPE": "U", "NORAD_CAT_ID": 31646, "ELEMENT_SET_NO": 999, "REV_AT_EPOCH": 63319, "BSTAR": 0.00038755051, "MEAN_MOTION_DOT": 6.99e-06, "MEAN_MOTION_DDOT": 0}, "tle": {"line1": "1 31646U 99025CBC 25355.80024628  .00000699  00000+0  38755-3 0  9999", "line2": "2 31646  98.6891  18.5609 0033494 188.0881 171.9757 14.14150090633193"}}, "geometry": {"type": "Point", "coordinates": [-128.8550013402548, 71.13011063919001]}}, {"type": "Feature", "properties": {"norad_id": 31655, "name": "FENGYUN 1C DEB", "group": "fengyun-1c-debris", "lat": 45.440092079616974, "lon": -62.362256726187326, "alt_km": 881.1730924568074, "timestamp": "2025-12-27T23:26:37.646083+00:00", "meta": {"OBJECT_NAME": "FENGYUN 1C DEB", "OBJECT_ID": "1999-025CBM", "EPOCH": "2025-12-21T19:28:59.991744", "MEAN_MOTION": 13.63924147, "ECCENTRICITY": 0.02903525, "INCLINATION": 99.2852, "RA_OF_ASC_NODE": 301.3055, "ARG_OF_PERICENTER": 114.1713, "MEAN_ANOMALY": 279.1459, "EPHEMERIS_TYPE": 0, "CLASSIFICATION_TYPE": "U", "NORAD_CAT_ID": 31655, "ELEMENT_SET_NO": 999, "REV_AT_EPOCH": 59843, "BSTAR": 0.0030683353, "MEAN_MOTION_DOT": 3.207e-05, "MEAN_MOTION_DDOT": 0}, "tle": {"line1": "1 31655U 99025CBM 25355.81180546  .00003207  00000+0  30683-2 0  9991", "line2": "2 31655  99.2852 301.3055 0290352 114.1713 279.1459 13.63924147598439"}}, "geometry": {"type": "Point", "coordinates": [-62.362256726187326, 45.440092079616974]}}, {"type": "Feature", "properties": {"norad_id": 31656, "name": "FENGYUN 1C DEB", "group": "fengyun-1c-debris", "lat": 52.32374211059711, "lon": -20.04809526623331, "alt_km": 718.1278916472038, "timestamp": "2025-12-27T23:26:37.646092+00:00", "meta": {"OBJECT_NAME": "FENGYUN 1C DEB", "OBJECT_ID": "1999-025CBN", "EPOCH": "2025-12-26T18:09:01.793664", "MEAN_MOTION": 14.47227247, "ECCENTRICITY": 0.00226094, "INCLINATION": 99.1953, "RA_OF_ASC_NODE": 350.7356, "ARG_OF_PERICENTER": 13.0612, "MEAN_ANOMALY": 164.5938, "EPHEMERIS_TYPE": 0, "CLASSIFICATION_TYPE": "U", "NORAD_CAT_ID": 31656, "ELEMENT_SET_NO": 999, "REV_AT_EPOCH": 96658, "BSTAR": 0.0023451949, "MEAN_MOTION_DOT": 8.556e-05, "MEAN_MOTION_DDOT": 0}, "tle": {"line1": "1 31656U 99025CBN 25360.75627076  .00008556  00000+0  23452-2 0  9993", "line2": "2 31656  99.1953 350.7356 0022609  13.0612 164.5938 14.47227247966580"}}, "geometry": {"type": "Point", "coordinates": [-20.04809526623331, 52.32374211059711]}}, {"type": "Feature", "properties": {"norad_id": 31657, "name": "FENGYUN 1C DEB", "group": "fengyun-1c-debris", "lat": 47.749337930724536, "lon": -102.47592154417887, "alt_km": 807.8423081296805, "timestamp": "2025-12-27T23:26:37.646102+00:00", "meta": {"OBJECT_NAME": "FENGYUN 1C DEB", "OBJECT_ID": "1999-025CBP", "EPOCH": "2025-12-15T00:08:35.623968", "MEAN_MOTION": 13.97064465, "ECCENTRICITY": 0.01478678, "INCLINATION": 102.2166, "RA_OF_ASC_NODE": 254.1396, "ARG_OF_PERICENTER": 48.4638, "MEAN_ANOMALY": 312.9088, "EPHEMERIS_TYPE": 0, "CLASSIFICATION_TYPE": "U", "NORAD_CAT_ID": 31657, "ELEMENT_SET_NO": 999, "REV_AT_EPOCH": 62896, "BSTAR": 0.0027457393, "MEAN_MOTION_DOT": 4.139e-05, "MEAN_MOTION_DDOT": 0}, "tle": {"line1": "1 31657U 99025CBP 25349.00596787  .00004139  00000+0  27457-2 0  9995", "line2": "2 31657 102.2166 254.1396 0147867  48.4638 312.9088 13.97064465628965"}}, "geometry": {"type": "Point", "coordinates": [-102.47592154417887, 47.749337930724536]}}, {"type": "Feature", "properties": {"norad_id": 31658, "name": "FENGYUN 1C DEB", "group": "fengyun-1c-debris", "lat": 73.60944376456918, "lon": -179.74882714647296, "alt_km": 1032.8141948267184, "timestamp": "2025-12-27T23:26:37.646112+00:00", "meta": {"OBJECT_NAME": "FENGYUN 1C DEB", "OBJECT_ID": "1999-025CBQ", "EPOCH": "2025-12-22T19:28:59.685024", "MEAN_MOTION": 13.98886705, "ECCENTRICITY": 0.02151336, "INCLINATION": 98.1523, "RA_OF_ASC_NODE": 204.8159, "ARG_OF_PERICENTER": 294.3668, "MEAN_ANOMALY": 63.5177, "EPHEMERIS_TYPE": 0, "CLASSIFICATION_TYPE": "U", "NORAD_CAT_ID": 31658, "ELEMENT_SET_NO": 999, "REV_AT_EPOCH": 69957, "BSTAR": 0.0026851926, "MEAN_MOTION_DOT": 4.685e-05, "MEAN_MOTION_DDOT": 0}, "tle": {"line1": "1 31658U 99025CBQ 25356.81180191  .00004685  00000+0  26852-2 0  9995", "line2": "2 31658  98.1523 204.8159 0215133 294.3668  63.5177 13.98886705699575"}}, "geometry": {"type": "Point", "coordinates": [-179.74882714647296, 73.60944376456918]}}]}